{
  "links" : {
    "next" : "https://api.nasa.gov/neo/rest/v1/feed?start_date=2009-08-23&end_date=2009-08-23&detailed=true&api_key=t0TVs3DtDT2H8Oy2Zy8m2eVrNsAVKAexjcZXUckd",
    "prev" : "https://api.nasa.gov/neo/rest/v1/feed?start_date=2009-08-21&end_date=2009-08-21&detailed=true&api_key=t0TVs3DtDT2H8Oy2Zy8m2eVrNsAVKAexjcZXUckd",
    "self" : "https://api.nasa.gov/neo/rest/v1/feed?start_date=2009-08-22&end_date=2009-08-22&detailed=true&api_key=t0TVs3DtDT2H8Oy2Zy8m2eVrNsAVKAexjcZXUckd"
  },
  "element_count" : 5,
  "near_earth_objects" : {
    "2009-08-22" : [ {
      "links" : {
        "self" : "https://api.nasa.gov/neo/rest/v1/neo/2347813?api_key=t0TVs3DtDT2H8Oy2Zy8m2eVrNsAVKAexjcZXUckd"
      },
      "neo_reference_id" : "2347813",
      "name" : "347813 (2002 NP1)",
      "nasa_jpl_url" : "http://ssd.jpl.nasa.gov/sbdb.cgi?sstr=2347813",
      "absolute_magnitude_h" : 17.7,
      "estimated_diameter" : {
        "kilometers" : {
          "estimated_diameter_min" : 0.7665755735,
          "estimated_diameter_max" : 1.7141150923
        },
        "meters" : {
          "estimated_diameter_min" : 766.5755735311,
          "estimated_diameter_max" : 1714.1150923063
        },
        "miles" : {
          "estimated_diameter_min" : 0.4763278307,
          "estimated_diameter_max" : 1.065101409
        },
        "feet" : {
          "estimated_diameter_min" : 2515.0118046636,
          "estimated_diameter_max" : 5623.7373594423
        }
      },
      "is_potentially_hazardous_asteroid" : false,
      "close_approach_data" : [ {
        "close_approach_date" : "2009-08-22",
        "epoch_date_close_approach" : 1250924400000,
        "relative_velocity" : {
          "kilometers_per_second" : "10.3326586142",
          "kilometers_per_hour" : "37197.5710111312",
          "miles_per_hour" : "23113.1240541109"
        },
        "miss_distance" : {
          "astronomical" : "0.3658658468",
          "lunar" : "142.3218231201",
          "kilometers" : "54732752",
          "miles" : "34009356"
        },
        "orbiting_body" : "Earth"
      } ],
      "orbital_data" : {
        "orbit_id" : "236",
        "orbit_determination_date" : "2017-08-01 06:19:08",
        "orbit_uncertainty" : "0",
        "minimum_orbit_intersection" : ".0826039",
        "jupiter_tisserand_invariant" : "5.082",
        "epoch_osculation" : "2458000.5",
        "eccentricity" : ".165289778005368",
        "semi_major_axis" : "1.248157406713864",
        "inclination" : "19.12386492180311",
        "ascending_node_longitude" : "315.0573459136713",
        "orbital_period" : "509.3337610385065",
        "perihelion_distance" : "1.041849746042373",
        "perihelion_argument" : "145.1480131035566",
        "aphelion_distance" : "1.454465067385354",
        "perihelion_time" : "2457777.421314470529",
        "mean_anomaly" : "157.673284069889",
        "mean_motion" : ".7068056891928345",
        "equinox" : "J2000"
      }
    }, {
      "links" : {
        "self" : "https://api.nasa.gov/neo/rest/v1/neo/3465951?api_key=t0TVs3DtDT2H8Oy2Zy8m2eVrNsAVKAexjcZXUckd"
      },
      "neo_reference_id" : "3465951",
      "name" : "(2009 QH6)",
      "nasa_jpl_url" : "http://ssd.jpl.nasa.gov/sbdb.cgi?sstr=3465951",
      "absolute_magnitude_h" : 22.7,
      "estimated_diameter" : {
        "kilometers" : {
          "estimated_diameter_min" : 0.0766575574,
          "estimated_diameter_max" : 0.1714115092
        },
        "meters" : {
          "estimated_diameter_min" : 76.6575573531,
          "estimated_diameter_max" : 171.4115092306
        },
        "miles" : {
          "estimated_diameter_min" : 0.0476327831,
          "estimated_diameter_max" : 0.1065101409
        },
        "feet" : {
          "estimated_diameter_min" : 251.5011804664,
          "estimated_diameter_max" : 562.3737359442
        }
      },
      "is_potentially_hazardous_asteroid" : false,
      "close_approach_data" : [ {
        "close_approach_date" : "2009-08-22",
        "epoch_date_close_approach" : 1250924400000,
        "relative_velocity" : {
          "kilometers_per_second" : "9.5615454179",
          "kilometers_per_hour" : "34421.5635042907",
          "miles_per_hour" : "21388.2209452077"
        },
        "miss_distance" : {
          "astronomical" : "0.0614556861",
          "lunar" : "23.9062614441",
          "kilometers" : "9193640",
          "miles" : "5712663"
        },
        "orbiting_body" : "Earth"
      } ],
      "orbital_data" : {
        "orbit_id" : "14",
        "orbit_determination_date" : "2017-04-06 09:00:12",
        "orbit_uncertainty" : "7",
        "minimum_orbit_intersection" : ".00669281",
        "jupiter_tisserand_invariant" : "5.771",
        "epoch_osculation" : "2458000.5",
        "eccentricity" : ".1870194905052306",
        "semi_major_axis" : "1.059483137014553",
        "inclination" : "14.24739568896478",
        "ascending_node_longitude" : "323.8030848846003",
        "orbital_period" : "398.3267749349061",
        "perihelion_distance" : ".8613391405312079",
        "perihelion_argument" : "104.1623706380817",
        "aphelion_distance" : "1.257627133497898",
        "perihelion_time" : "2457936.044961484630",
        "mean_anomaly" : "58.25321149783364",
        "mean_motion" : ".9037805707608549",
        "equinox" : "J2000"
      }
    }, {
      "links" : {
        "self" : "https://api.nasa.gov/neo/rest/v1/neo/3602686?api_key=t0TVs3DtDT2H8Oy2Zy8m2eVrNsAVKAexjcZXUckd"
      },
      "neo_reference_id" : "3602686",
      "name" : "(2012 HM1)",
      "nasa_jpl_url" : "http://ssd.jpl.nasa.gov/sbdb.cgi?sstr=3602686",
      "absolute_magnitude_h" : 21.4,
      "estimated_diameter" : {
        "kilometers" : {
          "estimated_diameter_min" : 0.1394938229,
          "estimated_diameter_max" : 0.3119176705
        },
        "meters" : {
          "estimated_diameter_min" : 139.4938229344,
          "estimated_diameter_max" : 311.9176705226
        },
        "miles" : {
          "estimated_diameter_min" : 0.0866774163,
          "estimated_diameter_max" : 0.1938165949
        },
        "feet" : {
          "estimated_diameter_min" : 457.6569140361,
          "estimated_diameter_max" : 1023.3519701574
        }
      },
      "is_potentially_hazardous_asteroid" : false,
      "close_approach_data" : [ {
        "close_approach_date" : "2009-08-22",
        "epoch_date_close_approach" : 1250924400000,
        "relative_velocity" : {
          "kilometers_per_second" : "16.8856226438",
          "kilometers_per_hour" : "60788.2415175929",
          "miles_per_hour" : "37771.4492918621"
        },
        "miss_distance" : {
          "astronomical" : "0.4164552717",
          "lunar" : "162.0010986328",
          "kilometers" : "62300824",
          "miles" : "38711936"
        },
        "orbiting_body" : "Earth"
      } ],
      "orbital_data" : {
        "orbit_id" : "44",
        "orbit_determination_date" : "2017-04-10 11:57:48",
        "orbit_uncertainty" : "0",
        "minimum_orbit_intersection" : ".135517",
        "jupiter_tisserand_invariant" : "3.610",
        "epoch_osculation" : "2458000.5",
        "eccentricity" : ".4809532724841389",
        "semi_major_axis" : "2.069622413974459",
        "inclination" : "7.569147895966372",
        "ascending_node_longitude" : "211.9450406676514",
        "orbital_period" : "1087.514623682526",
        "perihelion_distance" : "1.07423074116692",
        "perihelion_argument" : "71.84000288355541",
        "aphelion_distance" : "3.065014086781999",
        "perihelion_time" : "2458304.948598793466",
        "mean_anomaly" : "259.2183707888755",
        "mean_motion" : ".3310300313764732",
        "equinox" : "J2000"
      }
    } ]
  }
}